address,city,state,zipcode,Address.CountryName
2640 Enterprise Dr,Opelika,AL,36801-1511,United States
1129 S Park St,Carrollton,GA,30117-4429,United States
555 Bullsboro Dr,Newnan,GA,30265-1045,United States
1591 Bradley Park Dr,Columbus,GA,31904-3071,United States
1209 Peachtree Pkwy N,Peachtree City,GA,30269-1743,United States
2576 Berryhill Rd,Montgomery,AL,36117-3564,United States
2950 Chapel Hill Rd,Douglasville,GA,30135-1708,United States
2754 Legends Pkwy,Prattville,AL,36066-7748,United States
4616 Highway 280,Birmingham,AL,35242-5028,United States
107 Pavilion Pkwy,Fayetteville,GA,30214-4098,United States
1654 Gadsden Hwy,Birmingham,AL,35235-3104,United States
5220 Jimmy Lee Smith Pkwy,Hiram,GA,30141-2739,United States
250 S Colonial Dr,Alabaster,AL,35007-4657,United States
3660 Marketplace Blvd,East Point,GA,30344-5738,United States
531 Brookwood Village,Homewood,AL,35209-4501,United States
4125 Austell Rd,Austell,GA,30106-1836,United States
5561 Grove Blvd,Birmingham,AL,35226-4600,United States
2535 Dallas Hwy SW,Marietta,GA,30064-2543,United States
3489 Lowery Pkwy,Fultondale,AL,35068-1677,United States
3378 Cobb Pkwy NW,Acworth,GA,30101-8304,United States
1850 Jonesboro Rd,Mcdonough,GA,30253-5960,United States
375 18th St,Atlanta,GA,30363,United States
2201 Cobb Pkwy SE,Smyrna,GA,30080-7633,United States
1275 Caroline St NE,Atlanta,GA,30307-2705,United States
4889 Promenade Pkwy,Bessemer,AL,35022-7305,United States
740 Ernest W Barrett Pkwy NW,Kennesaw,GA,30144-6860,United States
2539 Piedmont Rd NE,Atlanta,GA,30324-3006,United States
100 Cherokee Pl,Cartersville,GA,30121-2954,United States
3535 Peachtree Rd NE,Atlanta,GA,30326-3287,United States
2400 N Druid Hills Rd NE,Atlanta,GA,30329-3211,United States
5570 Roswell Rd,Sandy Springs,GA,30342-1102,United States
1401 Johnson Ferry Rd,Marietta,GA,30062-6495,United States
140 Woodstock Square Ave,Woodstock,GA,30189-6500,United States
3040 Shallowford Rd,Marietta,GA,30062-1252,United States
100 Perimeter Center Pl,Atlanta,GA,30346-1204,United States
4241 Lavista Rd,Tucker,GA,30084-5310,United States
1135 Woodstock Rd,Roswell,GA,30075-2231,United States
3200 Holcomb Bridge Rd,Peachtree Corners,GA,30092-3361,United States
2195 Hwy 20 SE,Conyers,GA,30013-2028,United States
6000 N Point Pkwy,Alpharetta,GA,30022-3006,United States
2022 Cumming Hwy,Canton,GA,30115-8071,United States
5950 State Bridge Rd,Duluth,GA,30097-6438,United States
13055 Highway 9 N,Milton,GA,30004-5137,United States
1905 Scenic Hwy N,Snellville,GA,30078-5633,United States
2625 Peachtree Pkwy,Suwanee,GA,30024-1048,United States
875 Lawrenceville Suwanee Rd,Lawrenceville,GA,30043-8479,United States
1525 Market Place Blvd,Cumming,GA,30041-7935,United States
3205 Woodward Crossing Blvd,Buford,GA,30519-4938,United States
1901 13th Ave E,Tuscaloosa,AL,35404-4785,United States
2929 Watson Blvd,Warner Robins,GA,31093-9600,United States
916 Loganville Hwy,Bethlehem,GA,30620-2145,United States
5865 Spout Springs Rd,Flowery Branch,GA,30542-3448,United States
2750 Carl T Jones Dr SE,Huntsville,AL,35802-4914,United States
1235 Point Mallard Pkwy SE,Decatur,AL,35601-6531,United States
514 Shallowford Rd NW,Gainesville,GA,30504-4154,United States
4601 Montgomery Hwy,Dothan,AL,36303-1522,United States
6275 University Dr NW,Huntsville,AL,35806-1776,United States
2721 Dawson Rd,Albany,GA,31707-1672,United States
8207 HIGHWAY 72 W,Madison,AL,35758-9571,United States
1816 Gunbarrel Rd,Chattanooga,TN,37421-3129,United States
3065 Atlanta Hwy,Athens,GA,30606-3334,United States
5579 Highway 153,Hixson,TN,37343-3748,United States
4570 Frontage Rd NW,Cleveland,TN,37312-2905,United States
372 Cox Creek Pkwy,Florence,AL,35630-1540,United States
3519 Clemson Blvd,Anderson,SC,29621-1312,United States
3700 Bradfordville Rd,Tallahassee,FL,32309-1943,United States
1851 Old Fort Pkwy,Murfreesboro,TN,37129-3364,United States
853 Harbor Blvd,Destin,FL,32541-2709,United States
4727 Highway 90,Pace,FL,32571-1403,United States
1033 Crossings Blvd,Spring Hill,TN,37174-2755,United States
250 E Miracle Strip Pkwy,Mary Esther,FL,32569-1924,United States
4223 Washington Rd,Evans,GA,30809-3069,United States
15555 Starfish St,Panama City Beach,FL,32413-2457,United States
2120 Apalachee Pkwy,Tallahassee,FL,32301-4819,United States
800 Watkins Rd,Maryville,TN,37801-4597,United States
2340 Highway 77,Panama City,FL,32405-4404,United States
235 Robert C Daniel Jr Pkwy,Augusta,GA,30909-0800,United States
1749 E Nine Mile Rd,Pensacola,FL,32514-5729,United States
3064 Columbia Ave,Franklin,TN,37064-7424,United States
803 Industrial Blvd,Smyrna,TN,37167-6865,United States
1815 Norman Dr,Valdosta,GA,31601-3502,United States
4711 Bayou Blvd,Pensacola,FL,32503-2607,United States
1900 Town Center Blvd,Knoxville,TN,37922,United States
11100 Parkside Dr,Knoxville,TN,37934-1960,United States
1701 Galleria Blvd,Franklin,TN,37067-1602,United States
8040 Ray Mears Blvd,Knoxville,TN,37919-5457,United States
780 Old Hickory Blvd,Brentwood,TN,37027-4527,United States
401 S Mount Juliet Rd,Mount Juliet,TN,37122-6309,United States
2950 S Blue Angel Pkwy,Pensacola,FL,32506-6905,United States
6670 Clinton Hwy,Knoxville,TN,37912-1016,United States
694 Fairview Rd,Simpsonville,SC,29680-6708,United States
3171 Lebanon Pike,Nashville,TN,37214-2314,United States
26 White Bridge Rd,Nashville,TN,37205-1411,United States
1112 Woodruff Rd,Greenville,SC,29607-4109,United States
6814 Charlotte Pike,Nashville,TN,37209-4206,United States
1698 US Highway 98,Daphne,AL,36526-4252,United States
5405 Washington Pike,Knoxville,TN,37918-7004,United States
2545 Whiskey Rd,Aiken,SC,29803-8521,United States
3150 Bel Air Mall,Mobile,AL,36606-3203,United States
6025 Wade Hampton Blvd,Taylors,SC,29687-5334,United States
2050 Gallatin Rd N,Madison,TN,37115-2002,United States
1004 Andrews Run,Hendersonville,TN,37075-1232,United States
790 Schillinger Rd S,Mobile,AL,36695-8979,United States
3820 Gulf Shores Pkwy,Gulf Shores,AL,36542-2819,United States
15 McKenna Rd,Arden,NC,28704-9201,United States
8199 Warren H Abernathy Pkwy,Spartanburg,SC,29301-2452,United States
115 River Hills Rd,Asheville,NC,28805-2550,United States
93 Stonebrook Pl,Jackson,TN,38305-3637,United States
325 New Byhalia Rd,Collierville,TN,38017-3705,United States
9235 Poplar Ave,Germantown,TN,38138-7903,United States
475 N Germantown Pkwy,Cordova,TN,38018-6209,United States
5150 Goodman Rd,Olive Branch,MS,38654-7903,United States
7989 US Highway 64,Memphis,TN,38133-4007,United States
5959 Poplar Ave,Memphis,TN,38119-3938,United States
2823 Wilma Rudolph Blvd,Clarksville,TN,37040-5002,United States
601 Colonial Rd,Memphis,TN,38117-5132,United States
7255 Interstate Dr,Horn Lake,MS,38637-1410,United States
160 American Ave,Bowling Green,KY,42104-6378,United States
170 Promenade Blvd,Flowood,MS,39232-8017,United States
6365 I 55 N,Jackson,MS,39213-9742,United States
3000 E Highland Dr,Jonesboro,AR,72401-6321,United States
6143 U S Highway 98,Hattiesburg,MS,39402-8533,United States
5151 Frederica St,Owensboro,KY,42301-7443,United States
1631 Ring Rd,Elizabethtown,KY,42701-5470,United States
3867 Promenade Pkwy,D'iberville,MS,39540-5363,United States
69320 Highway 21,Covington,LA,70433-7220,United States
2030 Hammond Square Dr,Hammond,LA,70403-6156,United States
4103 Pecanland Mall Dr,Monroe,LA,71203-7009,United States
4500 Veterans Memorial Blvd,Metairie,LA,70006-5330,United States
1401 W Esplanade Ave,Kenner,LA,70065-2845,United States
1731 Manhattan Blvd,Harvey,LA,70058-3409,United States
2001 Millerville Rd,Baton Rouge,LA,70816-1408,United States
6885 Siegen Ln,Baton Rouge,LA,70809-4528,United States
6625 E Lloyd Expy,Evansville,IN,47715-2757,United States
4000 1st Ave,Evansville,IN,47710-3614,United States
202 Siemers Dr,Cape Girardeau,MO,63701-8419,United States
7311 Jefferson Blvd,Louisville,KY,40219-6178,United States
3000 W Deyoung St,Marion,IL,62959-5553,United States
3600 Mall Rd,Louisville,KY,40218-5403,United States
4640 Taylorsville Rd,Louisville,KY,40220-3530,United States
4174 Westport Rd,Louisville,KY,40207-2735,United States
2209 State St,New Albany,IN,47150-4924,United States
12975 Shelbyville Rd,Louisville,MA,40243-2425,United States
1125 Veterans Pkwy,Clarksville,IN,47129-2664,United States
4101 Towne Center Dr,Louisville,KY,40241-4146,United States
131 West Reynolds Rd,Lexington,KY,40503-3599,United States
1940 Pavillon Way,Lexington,KY,40509-2210,United States
3970 SW Archer Rd,Gainesville,FL,32608-2342,United States
250 NW 13th St,Gainesville,FL,32601-5166,United States
1727 Martin Luther King Jr Blvd,Houma,LA,70360-2409,United States
3225 Louisiana Ave,Lafayette,LA,70501-1406,United States
4313 Ambassador Caffery Pkwy,Lafayette,LA,70508-6703,United States
9525 Crosshill Blvd,Jacksonville,FL,32222-5812,United States
200 Glynn Isle,Brunswick,NY,31525-2929,United States
6331 Roosevelt Blvd,Jacksonville,FL,32244-3303,United States
463737 State Rd 200,Yulee,FL,32097-8652,United States
1490 County Rd 220,Orange Park,FL,32003-7927,United States
10490 San Jose Blvd,Jacksonville,FL,32257-6207,United States
444 Monument Rd,Jacksonville,FL,32225-6429,United States
4567 River City Dr,Jacksonville,FL,32246-7411,United States
9041 Southside Blvd,Jacksonville,FL,32256-5484,United States
2000 SW College Rd,Ocala,FL,34471-3020,United States
13740 Beach Blvd,Jacksonville,FL,32224-1208,United States
490 Marsh Landing Pkwy,Jacksonville Beach,FL,32250-5855,United States
2116 N Roan St,Johnson City,TN,37601-2535,United States
2626 E Stone Dr,Kingsport,TN,37660-5848,United States
5119 Sunset Blvd,Lexington,SC,29072-9155,United States
134 Harbison Blvd,Columbia,SC,29212-2204,United States
14065 Abercorn St,Savannah,GA,31419-1964,United States
1907 E Victory Dr,Savannah,GA,31404-3714,United States
1050 Fording Island Rd,Bluffton,SC,29910-6500,United States
150 W 100th Ave,Anchorage,AK,99515-2673,United States
1200 N Muldoon Rd,Anchorage,AK,99504-6103,United States
1801 E Parks Hwy,Wasilla,AK,99654-7350,United States
7377 Alcoa Rd,Bryant,AR,72022-6204,United States
12700 Chenal Pkwy,Little Rock,AR,72211-3360,United States
420 S University Ave,Little Rock,AR,72205-5246,United States
4000 McCain Blvd,North Little Rock,AR,72116-8039,United States
501 Elsinger Blvd,Conway,AR,72032-4717,United States
4001 Phoenix Ave,Fort Smith,AR,72903-6099,United States
102 Richmond Ranch Rd,Texarkana,TX,75503-1081,United States
3545 N Shiloh Dr,Fayetteville,AR,72703-5359,United States
1200 Branson Hills Pkwy,Branson,MO,65616-9943,United States
2404 Promenade Blvd,Rogers,AR,72758-9080,United States
2735 Beene Blvd,Bossier City,LA,71111-5491,United States
7110 Youree Dr,Shreveport,LA,71105-5107,United States
1825 E Primrose St,Springfield,MO,65804-6497,United States
3092 N Eastman Rd,Longview,TX,75605-5093,United States
3151 E 7th St,Joplin,MO,64801-5581,United States
1150 E Hillside Dr,Broken Arrow,OK,74012-2385,United States
10711 E 71st St,Tulsa,OK,74133-2522,United States
10019 S Memorial Dr,Tulsa,OK,74133-6103,United States
1701 S Yale Ave,Tulsa,OK,74112-6221,United States
9010 N 121st East Ave,Owasso,OK,74055-5358,United States
7437 S Olympia Ave W,Tulsa,OK,74132-1838,United States
7003 S Broadway Ave,Tyler,TX,75703-4737,United States
2206 Memorial Dr,Alexandria,LA,71301-3611,United States
4160 Town Center Rd,Sherman,TX,75092-2567,United States
919 Highway D,Osage Beach,MO,65065-3169,United States
7305 SE 29th St,Midwest City,OK,73110-6122,United States